NORAD_CAT_ID,OBJECT_NAME,OBJECT_TYPE,EPOCH,MEAN_MOTION,ECCENTRICITY,INCLINATION,RA_OF_ASC_NODE,ARG_OF_PERICENTER,MEAN_ANOMALY,BSTAR,MEAN_MOTION_DOT,MEAN_MOTION_DDOT,TLE_LINE0,TLE_LINE1,TLE_LINE2,SEMIMAJOR_AXIS,PERIOD,APOGEE,PERIGEE,DECAYED
52337.0,STARLINK-3797,PAYLOAD,2022-06-07 22:00:00,15.43852453,0.0001699,53.2173,245.69,44.2891,155.6757,-0.016953,-0.00722224,0.0,0 STARLINK-3797,1 52337U 22045G   22158.91667824 -.00722224  00000-0 -16953-1 0  9990,2 52337  53.2173 245.6900 0001699  44.2891 155.6757 15.43852453  1302,6812.889,93.273,435.912,433.596,0.0
52337.0,STARLINK-3797,PAYLOAD,2022-06-08 06:00:02,15.43341212,0.0001819,53.2175,244.1093,38.4191,214.9638,-0.017159,-0.00718699,0.0,0 STARLINK-3797,1 52337U 22045G   22159.25002315 -.00718699  00000-0 -17159-1 0  9996,2 52337  53.2175 244.1093 0001819  38.4191 214.9638 15.43341212  8707,6814.393,93.304,437.49800000000016,435.019,0.0
52337.0,STARLINK-3797,PAYLOAD,2022-06-08 14:00:01,15.42832025,0.0001941,53.2175,242.5327,32.347,273.711,-0.017526,-0.00721323,0.0,0 STARLINK-3797,1 52337U 22045G   22159.58334491 -.00721323  00000-0 -17526-1 0  9991,2 52337  53.2175 242.5327 0001941  32.3470 273.7110 15.42832025  1301,6815.893,93.335,439.081,436.435,0.0
52337.0,STARLINK-3797,PAYLOAD,2022-06-08 22:00:01,15.42322357,0.0001509,53.2173,240.9538,40.4315,317.8194,-0.017851,-0.00722032,0.0,0 STARLINK-3797,1 52337U 22045G   22159.91668981 -.00722032  00000-0 -17851-1 0  9991,2 52337  53.2173 240.9538 0001509  40.4315 317.8194 15.42322357  1307,6817.394,93.366,440.288,438.23,0.0
52337.0,STARLINK-3797,PAYLOAD,2022-06-09 06:00:00,15.41810494,0.0001601,53.2174,239.3769,38.7924,10.91,-0.018051,-0.00717989,0.0,0 STARLINK-3797,1 52337U 22045G   22160.25001157 -.00717989  00000-0 -18051-1 0  9994,2 52337  53.2174 239.3769 0001601  38.7924  10.9100 15.41810494  8864,6818.903,93.397,441.86,439.676,0.0
52337.0,STARLINK-3797,PAYLOAD,2022-06-09 14:00:01,15.413014000000002,0.0001888,53.2174,237.8039,33.251999999999995,67.3511,-0.018417,-0.0072003,0.0,0 STARLINK-3797,1 52337U 22045G   22160.58334491 -.00720030  00000-0 -18417-1 0  9997,2 52337  53.2174 237.8039 0001888  33.2520  67.3511 15.41301400  1302,6820.404,93.428,443.557,440.982,0.0
52337.0,STARLINK-3797,PAYLOAD,2022-06-09 22:00:00,15.40791734,0.0001738,53.2173,236.2286,39.8255,111.0676,-0.018736,-0.007201,0.0,0 STARLINK-3797,1 52337U 22045G   22160.91667824 -.00720100  00000-0 -18736-1 0  9995,2 52337  53.2173 236.2286 0001738  39.8255 111.0676 15.40791734  1300,6821.908,93.458,444.959,442.588,0.0
52337.0,STARLINK-3797,PAYLOAD,2022-06-10 08:00:01,15.40153638,0.0001638,53.2175,234.2626,41.517,261.3764,-0.019107,-0.00718996,0.0,0 STARLINK-3797,1 52337U 22045G   22161.33334491 -.00718996  00000-0 -19107-1 0  9996,2 52337  53.2175 234.2626 0001638  41.5170 261.3764 15.40153638  9022,6823.792,93.497,446.775,444.54,0.0
52337.0,STARLINK-3797,PAYLOAD,2022-06-10 14:00:01,15.39770275,0.0001824,53.2175,233.0855,40.3109,209.3222,-0.019295,-0.00717078,0.0,0 STARLINK-3797,1 52337U 22045G   22161.58334491 -.00717078  00000-0 -19295-1 0  9991,2 52337  53.2175 233.0855 0001824  40.3109 209.3222 15.39770275  1303,6824.925,93.52,448.035,445.545,0.0
52337.0,STARLINK-3797,PAYLOAD,2022-06-10 22:00:00,15.39263412,0.0001605,53.2175,231.5138,41.5322,256.5521,-0.0198,-0.0072309,0.0,0 STARLINK-3797,1 52337U 22045G   22161.91667824 -.00723090  00000-0 -19800-1 0  9990,2 52337  53.2175 231.5138 0001605  41.5322 256.5521 15.39263412  1303,6826.4230000000025,93.551,449.384,447.193,0.0
52337.0,STARLINK-3797,PAYLOAD,2022-06-11 14:00:01,15.38241012,0.0001915,53.2176,228.3785,29.432,3.7158,-0.020345,-0.00718805,0.0,0 STARLINK-3797,1 52337U 22045G   22162.58334491 -.00718805  00000-0 -20345-1 0  9999,2 52337  53.2176 228.3785 0001915  29.4320   3.7158 15.38241012  9221,6829.448,93.613,452.621,450.005,0.0
52337.0,STARLINK-3797,PAYLOAD,2022-06-11 22:00:00,15.37730858,0.0001706999999999,53.2176,226.8103,35.0373,44.7243,-0.020679,-0.00718495,0.0,0 STARLINK-3797,1 52337U 22045G   22162.91667824 -.00718495  00000-0 -20679-1 0  9990,2 52337  53.2176 226.8103 0001707  35.0373  44.7243 15.37730858  1309,6830.958000000001,93.644,453.989,451.657,0.0
52337.0,STARLINK-3797,PAYLOAD,2022-06-12 14:00:01,15.36707901,0.0002065,53.2176,223.6823,32.6087,138.5397,-0.0212,-0.00712958,0.0,0 STARLINK-3797,1 52337U 22045G   22163.58334491 -.00712958  00000-0 -21200-1 0  9994,2 52337  53.2176 223.6823 0002065  32.6087 138.5397 15.36707901  9375,6833.989000000001,93.707,457.265,454.443,0.0
52337.0,STARLINK-3797,PAYLOAD,2022-06-12 22:00:00,15.36201315,0.0001628,53.2176,222.1175,47.7891,168.1335,-0.02173,-0.00718373,0.0,0 STARLINK-3797,1 52337U 22045G   22163.91667824 -.00718373  00000-0 -21730-1 0  9995,2 52337  53.2176 222.1175 0001628  47.7891 168.1335 15.36201315  1307,6835.4919999999975,93.738,458.469,456.244,0.0
52337.0,STARLINK-3797,PAYLOAD,2022-06-13 14:00:01,15.35179422,0.0001657,53.2176,218.9971,42.2466,261.3857,-0.022335,-0.00714734,0.0,0 STARLINK-3797,1 52337U 22045G   22164.58334491 -.00714734  00000-0 -22335-1 0  9999,2 52337  53.2176 218.9971 0001657  42.2466 261.3857 15.35179422  9523,6838.525,93.8,461.523,459.256,0.0
52337.0,STARLINK-3797,PAYLOAD,2022-06-13 22:00:00,15.34671474,0.0001593,53.2176,217.436,39.2429,307.3259,-0.022849,-0.00719003,0.0,0 STARLINK-3797,1 52337U 22045G   22164.91667824 -.00719003  00000-0 -22849-1 0  9999,2 52337  53.2176 217.4360 0001593  39.2429 307.3259 15.34671474  1301,6840.033,93.831,462.98800000000006,460.809,0.0
52337.0,STARLINK-3797,PAYLOAD,2022-06-14 14:00:01,15.33648518,0.0001872,53.2174,214.3228,31.7512,38.851,-0.023411,-0.00713499,0.0,0 STARLINK-3797,1 52337U 22045G   22165.58334491 -.00713499  00000-0 -23411-1 0  9993,2 52337  53.2174 214.3228 0001872  31.7512  38.8510 15.33648518  9685,6843.075,93.894,466.221,463.659,0.0
52337.0,STARLINK-3797,PAYLOAD,2022-06-14 22:00:00,15.33139653,0.0001717,53.2175,212.7653,37.8387,73.8618,-0.023866,-0.00715512,0.0,0 STARLINK-3797,1 52337U 22045G   22165.91667824 -.00715512  00000-0 -23866-1 0  9991,2 52337  53.2175 212.7653 0001717  37.8387  73.8618 15.33139653  1309,6844.589,93.925,467.629,465.279,0.0
52337.0,STARLINK-3797,PAYLOAD,2022-06-15 14:00:01,15.32116881,0.0001608,53.2173,209.6591,51.2103,140.8467,-0.024448,-0.00710059,0.0,0 STARLINK-3797,1 52337U 22045G   22166.58334491 -.00710059  00000-0 -24448-1 0  9994,2 52337  53.2173 209.6591 0001608  51.2103 140.8467 15.32116881  9838,6847.635,93.988,470.601,468.398,0.0
52337.0,STARLINK-3797,PAYLOAD,2022-06-15 22:00:00,15.31609641,0.0001686,53.2174,208.1051,44.9188,186.3977,-0.025019,-0.00714764,0.0,0 STARLINK-3797,1 52337U 22045G   22166.91667824 -.00714764  00000-0 -25019-1 0  9992,2 52337  53.2174 208.1051 0001686  44.9188 186.3977 15.31609641  1307,6849.146,94.019,472.166,469.857,0.0
52337.0,STARLINK-3797,PAYLOAD,2022-06-16 02:00:01,15.31355043,0.0001631,53.2174,207.3292,40.857,29.8591,-0.025258,-0.00715758,0.0,0 STARLINK-3797,1 52337U 22045G   22167.08334491 -.00715758  00000-0 -25258-1 0  9991,2 52337  53.2174 207.3292 0001631  40.8570  29.8591 15.31355043  1302,6849.905,94.034,472.888,470.653,0.0
52337.0,STARLINK-3797,PAYLOAD,2022-06-19 14:00:01,15.26001998,0.0001613,53.217,191.113,48.8306,213.8908,-0.029869,-0.00725781,0.0,0 STARLINK-3797,1 52337U 22045G   22170.58334491 -.00725781  00000-0 -29869-1 0  9999,2 52337  53.2170 191.1130 0001613  48.8306 213.8908 15.26001998  1302,6865.915,94.364,488.888,486.673,0.0
52337.0,STARLINK-3797,PAYLOAD,2022-06-19 20:00:01,15.25617361,0.0001764,53.2173,189.9581,42.8291,153.8809,-0.030072,-0.007225,0.0,0 STARLINK-3797,1 52337U 22045G   22170.83334491 -.00722500  00000-0 -30072-1 0  9991,2 52337  53.2173 189.9581 0001764  42.8291 153.8809 15.25617361 10482,6867.069,94.388,490.146,487.723,0.0
52337.0,STARLINK-3797,PAYLOAD,2022-06-19 22:00:00,15.25488896,0.0001617,53.2173,189.5735,45.1256,249.5041,-0.03013,-0.00721162,0.0,0 STARLINK-3797,1 52337U 22045G   22170.91667824 -.00721162  00000-0 -30130-1 0  9997,2 52337  53.2173 189.5735 0001617  45.1256 249.5041 15.25488896  1304,6867.455,94.396,490.43,488.209,0.0
52337.0,STARLINK-3797,PAYLOAD,2022-06-20 14:00:01,15.24472334,0.0001477,53.2171,186.5034,46.5196,310.0805,-0.031286,-0.00725881,0.0,0 STARLINK-3797,1 52337U 22045G   22171.58334491 -.00725881  00000-0 -31286-1 0  9997,2 52337  53.2171 186.5034 0001477  46.5196 310.0805 15.24472334  1304,6870.507,94.459,493.387,491.358,0.0
52337.0,STARLINK-3797,PAYLOAD,2022-06-20 22:00:00,15.23958676,0.0001611,53.2172,184.9676,39.1197,347.5506,-0.031544,-0.00721033,0.0,0 STARLINK-3797,1 52337U 22045G   22171.91667824 -.00721033  00000-0 -31544-1 0  9995,2 52337  53.2172 184.9676 0001611  39.1197 347.5506 15.23958676 10656,6872.051,94.491,495.023,492.809,0.0
52337.0,STARLINK-3797,PAYLOAD,2022-06-21 14:00:01,15.22940777,0.0001701,53.2171,181.9047,38.8719,46.0926,-0.032619,-0.00723138,0.0,0 STARLINK-3797,1 52337U 22045G   22172.58334491 -.00723138  00000-0 -32619-1 0  9992,2 52337  53.2171 181.9047 0001701  38.8719  46.0926 15.22940777  1301,6875.113,94.554,498.147,495.8080000000001,0.0
52337.0,STARLINK-3797,PAYLOAD,2022-06-21 22:00:00,15.22430579,0.0001855,53.2173,180.3725,35.569,77.626,-0.033173,-0.00724285,0.0,0 STARLINK-3797,1 52337U 22045G   22172.91667824 -.00724285  00000-0 -33173-1 0  9998,2 52337  53.2173 180.3725 0001855  35.5690  77.6260 15.22430579  1306,6876.649,94.586,499.789,497.23800000000006,0.0
52337.0,STARLINK-3797,PAYLOAD,2022-06-22 00:00:02,15.22303384,0.0001877,53.2173,179.99,41.8128,168.4064,-0.033264,-0.00723587,0.0,0 STARLINK-3797,1 52337U 22045G   22173.00002315 -.00723587  00000-0 -33264-1 0  9992,2 52337  53.2173 179.9900 0001877  41.8128 168.4064 15.22303384 10815,6877.031999999997,94.593,500.18800000000016,497.606,0.0
